NORAD_CAT_ID,OBJECT_NAME,OBJECT_TYPE,EPOCH,MEAN_MOTION,ECCENTRICITY,INCLINATION,RA_OF_ASC_NODE,ARG_OF_PERICENTER,MEAN_ANOMALY,BSTAR,MEAN_MOTION_DOT,MEAN_MOTION_DDOT,TLE_LINE0,TLE_LINE1,TLE_LINE2,SEMIMAJOR_AXIS,PERIOD,APOGEE,PERIGEE,DECAYED
54158.0,STARLINK-5297,PAYLOAD,2024-06-05 21:04:46,15.08836238,0.0001481,53.2182,15.4557,94.4008,265.7153,9.1086e-05,1.162e-05,0.0,0 STARLINK-5297,1 54158U 22141B   24157.87831027  .00001162  00000-0  91086-4 0  9996,2 54158  53.2182  15.4557 0001481  94.4008 265.7153 15.08836238 88821,6917.892,95.438,540.781,538.732,0.0
54158.0,STARLINK-5297,PAYLOAD,2024-06-07 00:06:18,15.08847059,0.0001539,53.2185,10.4031,88.2319,271.885,0.00011029,1.468e-05,0.0,0 STARLINK-5297,1 54158U 22141B   24159.00438482  .00001468  00000-0  11029-3 0  9998,2 54158  53.2185  10.4031 0001539  88.2319 271.8850 15.08847059 88999,6917.859,95.437,540.788,538.659,0.0
54158.0,STARLINK-5297,PAYLOAD,2024-06-07 20:46:19,15.08843197,0.0001988,53.216,6.5346,93.8455,266.2765,5.6863e-05,6.17e-06,0.0,0 STARLINK-5297,1 54158U 22141B   24159.86550832  .00000617  00000-0  56863-4 0  9997,2 54158  53.2160   6.5346 0001988  93.8455 266.2765 15.08843197 89126,6917.871,95.437,541.111,538.36,0.0
54158.0,STARLINK-5297,PAYLOAD,2024-06-08 06:18:39,15.08837261,0.0001607,53.2205,4.7521,93.9791,266.1385,1.0351e-05,-1.23e-06,0.0,0 STARLINK-5297,1 54158U 22141B   24160.26295328 -.00000123  00000-0  10351-4 0  9994,2 54158  53.2205   4.7521 0001607  93.9791 266.1385 15.08837261 89181,6917.889,95.438,540.865,538.642,0.0
54158.0,STARLINK-5297,PAYLOAD,2024-06-08 14:15:34,15.08841172,0.0001769,53.2189,3.2644,93.2281,266.8914,4.3344e-05,4.02e-06,0.0,0 STARLINK-5297,1 54158U 22141B   24160.59415071  .00000402  00000-0  43344-4 0  9996,2 54158  53.2189   3.2644 0001769  93.2281 266.8914 15.08841172 89235,6917.877,95.437,540.966,538.518,0.0
54158.0,STARLINK-5297,PAYLOAD,2024-06-08 20:37:06,15.08842499,0.0001763,53.227,2.0763,80.6449,279.4743,0.00016477,2.335e-05,0.0,0 STARLINK-5297,1 54158U 22141B   24160.85910667  .00002335  00000-0  16477-3 0  9999,2 54158  53.2270   2.0763 0001763  80.6449 279.4743 15.08842499 89272,6917.873,95.437,540.957,538.518,0.0
54158.0,STARLINK-5297,PAYLOAD,2024-06-09 06:09:26,15.08839386,0.0001158,53.2146,0.2913,89.671,270.4415,8.642e-05,1.088e-05,0.0,0 STARLINK-5297,1 54158U 22141B   24161.25655211  .00001088  00000-0  86420-4 0  9995,2 54158  53.2146   0.2913 0001158  89.6710 270.4415 15.08839386 89334,6917.882,95.438,540.548,538.946,0.0
54158.0,STARLINK-5297,PAYLOAD,2024-06-09 14:06:22,15.08828486,0.0001824,53.2213,358.8044,84.8316,275.2885,6.2446e-06,-1.89e-06,0.0,0 STARLINK-5297,1 54158U 22141B   24161.58776524 -.00000189  00000-0  62446-5 0  9997,2 54158  53.2213 358.8044 0001824  84.8316 275.2885 15.08828486 89383,6917.916,95.438,541.042,538.519,0.0
54158.0,STARLINK-5297,PAYLOAD,2024-06-09 20:27:55,15.08835066,0.0001547,53.22,357.6152,91.2953,268.8217,5.9406e-05,6.57e-06,0.0,0 STARLINK-5297,1 54158U 22141B   24161.85272018  .00000657  00000-0  59406-4 0  9996,2 54158  53.2200 357.6152 0001547  91.2953 268.8217 15.08835066 89421,6917.895,95.438,540.831,538.69,0.0
54158.0,STARLINK-5297,PAYLOAD,2024-06-09 23:38:41,15.08835796,0.0001632,53.2187,357.0207,94.3656,265.7523,7.9223e-05,9.73e-06,0.0,0 STARLINK-5297,1 54158U 22141B   24161.98519975  .00000973  00000-0  79223-4 0  9996,2 54158  53.2187 357.0207 0001632  94.3656 265.7523 15.08835796 89447,6917.893,95.438,540.887,538.629,0.0
54158.0,STARLINK-5297,PAYLOAD,2024-06-10 20:18:41,15.08847273,0.0001565,53.2196,353.1558,78.8396,281.2772,9.0697e-05,1.156e-05,0.0,0 STARLINK-5297,1 54158U 22141B   24162.84631471  .00001156  00000-0  90697-4 0  9990,2 54158  53.2196 353.1558 0001565  78.8396 281.2772 15.08847273 89572,6917.858,95.437,540.806,538.641,0.0
54158.0,STARLINK-5297,PAYLOAD,2024-06-11 05:51:00,15.08836006,0.0001665,53.2202,351.371,80.8863,279.2317,0.00015995,2.258e-05,0.0,0 STARLINK-5297,1 54158U 22141B   24163.24375948  .00002258  00000-0  15995-3 0  9990,2 54158  53.2202 351.3710 0001665  80.8863 279.2317 15.08836006 89634,6917.893,95.438,540.909,538.606,0.0
54158.0,STARLINK-5297,PAYLOAD,2024-06-11 18:34:06,15.0883468,0.0001209,53.2158,348.9928,83.3805,276.7324,0.00016875,2.398e-05,0.0,0 STARLINK-5297,1 54158U 22141B   24163.77368144  .00002398  00000-0  16875-3 0  9991,2 54158  53.2158 348.9928 0001209  83.3805 276.7324 15.08834680 89710,6917.897,95.438,540.598,538.925,0.0
54158.0,STARLINK-5297,PAYLOAD,2024-06-12 05:41:47,15.08843993,0.0001198,53.2168,346.9117,84.9919,275.121,5.5894e-05,6.02e-06,0.0,0 STARLINK-5297,1 54158U 22141B   24164.23735800  .00000602  00000-0  55894-4 0  9991,2 54158  53.2168 346.9117 0001198  84.9919 275.1210 15.08843993 89780,6917.868,95.437,540.562,538.904,0.0
54158.0,STARLINK-5297,PAYLOAD,2024-06-12 18:24:53,15.0884163,0.0001199,53.2167,344.5351,75.7563,284.3563,-4.9887e-05,-1.082e-05,0.0,0 STARLINK-5297,1 54158U 22141B   24164.76728400 -.00001082  00000-0 -49887-4 0  9997,2 54158  53.2167 344.5351 0001199  75.7563 284.3563 15.08841630 89865,6917.875,95.437,540.57,538.911,0.0
54158.0,STARLINK-5297,PAYLOAD,2024-06-13 11:54:07,15.0884464,0.0001481,53.2191,341.2619,83.5395,276.5766,4.2622e-05,3.9e-06,0.0,0 STARLINK-5297,1 54158U 22141B   24165.49591861  .00000390  00000-0  42622-4 0  9996,2 54158  53.2191 341.2619 0001481  83.5395 276.5766 15.08844640 89971,6917.866,95.437,540.756,538.707,0.0
54158.0,STARLINK-5297,PAYLOAD,2024-06-13 15:04:53,15.08842996,0.0001341,53.2184,340.6679,82.0047,278.1097,0.00011806,1.592e-05,0.0,0 STARLINK-5297,1 54158U 22141B   24165.62839726  .00001592  00000-0  11806-3 0  9990,2 54158  53.2184 340.6679 0001341  82.0047 278.1097 15.08842996 89994,6917.871,95.437,540.664,538.809,0.0
54158.0,STARLINK-5297,PAYLOAD,2024-06-13 18:15:39,15.0884494,0.0001191,53.2182,340.0725,84.4374,275.6754,0.00015279,2.145e-05,0.0,0 STARLINK-5297,1 54158U 22141B   24165.76087448  .00002145  00000-0  15279-3 0  9994,2 54158  53.2182 340.0725 0001191  84.4374 275.6754 15.08844940 90018,6917.865,95.437,540.554,538.906,0.0
54158.0,STARLINK-5297,PAYLOAD,2024-06-14 14:55:40,15.08851865,0.0001595,53.2185,336.2071,82.2351,277.8822,-0.00014665,-2.622e-05,0.0,0 STARLINK-5297,1 54158U 22141B   24166.62199740 -.00002622  00000-0 -14665-3 0  9999,2 54158  53.2185 336.2071 0001595  82.2351 277.8822 15.08851865 90149,6917.844,95.437,540.813,538.606,0.0
54158.0,STARLINK-5297,PAYLOAD,2024-06-14 18:06:27,15.08834985,0.0001266,53.2186,335.6112,89.5992,270.5145,0.00013523,1.865e-05,0.0,0 STARLINK-5297,1 54158U 22141B   24166.75448178  .00001865  00000-0  13523-3 0  9993,2 54158  53.2186 335.6112 0001266  89.5992 270.5145 15.08834985 90169,6917.896,95.438,540.637,538.885,0.0
54158.0,STARLINK-5297,PAYLOAD,2024-06-15 14:46:27,15.08842391,0.0001355,53.2186,331.7471,92.5107,267.604,1.8173e-05,1e-08,0.0,0 STARLINK-5297,1 54158U 22141B   24167.61560013  .00000001  00000-0  18173-4 0  9990,2 54158  53.2186 331.7471 0001355  92.5107 267.6040 15.08842391 90290,6917.873,95.437,540.675,538.801,0.0
54158.0,STARLINK-5297,PAYLOAD,2024-06-15 17:57:13,15.08848486,0.0001276,53.2183,331.1493,87.3453,272.7685,1.9746e-05,2.6e-07,0.0,0 STARLINK-5297,1 54158U 22141B   24167.74807578  .00000026  00000-0  19746-4 0  9998,2 54158  53.2183 331.1493 0001276  87.3453 272.7685 15.08848486 90319,6917.854,95.437,540.602,538.837,0.0
54158.0,STARLINK-5297,PAYLOAD,2024-06-16 14:37:14,15.08838219,0.0001357,53.2184,327.2875,99.7501,260.3645,6.6584e-05,7.72e-06,0.0,0 STARLINK-5297,1 54158U 22141B   24168.60920077  .00000772  00000-0  66584-4 0  9994,2 54158  53.2184 327.2875 0001357  99.7501 260.3645 15.08838219 90447,6917.886,95.438,540.69,538.812,0.0
54158.0,STARLINK-5297,PAYLOAD,2024-06-16 17:48:00,15.08841681,0.0001395,53.2186,326.6941,106.0093,254.1053,9.147e-05,1.168e-05,0.0,0 STARLINK-5297,1 54158U 22141B   24168.74167783  .00001168  00000-0  91470-4 0  9998,2 54158  53.2186 326.6941 0001395 106.0093 254.1053 15.08841681 90469,6917.875,95.437,540.705,538.775,0.0
54158.0,STARLINK-5297,PAYLOAD,2024-06-17 09:41:52,15.08841323,0.0001535,53.2192,323.7214,99.1708,260.9457,4.898e-05,4.92e-06,0.0,0 STARLINK-5297,1 54158U 22141B   24169.40408177  .00000492  00000-0  48980-4 0  9994,2 54158  53.2192 323.7214 0001535  99.1708 260.9457 15.08841323 90565,6917.876,95.437,540.803,538.679,0.0
54158.0,STARLINK-5297,PAYLOAD,2024-06-18 09:32:40,15.08836039,0.0001236,53.2185,319.2596,96.086,264.0273,4.0258e-05,3.53e-06,0.0,0 STARLINK-5297,1 54158U 22141B   24170.39768623  .00000353  00000-0  40258-4 0  9995,2 54158  53.2185 319.2596 0001236  96.0860 264.0273 15.08836039 90719,6917.892,95.438,540.613,538.902,0.0
54158.0,STARLINK-5297,PAYLOAD,2024-06-18 14:18:49,15.0883962,0.0001443,53.2191,318.3674,94.687,265.4287,5.7076e-05,6.21e-06,0.0,0 STARLINK-5297,1 54158U 22141B   24170.59640427  .00000621  00000-0  57076-4 0  9992,2 54158  53.2191 318.3674 0001443  94.6870 265.4287 15.08839620 90740,6917.882,95.438,540.745,538.748,0.0
54158.0,STARLINK-5297,PAYLOAD,2024-06-18 17:29:35,15.08838126,0.000119,53.2183,317.7724,91.8861,268.2267,5.2564e-07,-2.79e-06,0.0,0 STARLINK-5297,1 54158U 22141B   24170.72888665 -.00000279  00000-0  52564-6 0  9994,2 54158  53.2183 317.7724 0001190  91.8861 268.2267 15.08838126 90769,6917.886,95.438,540.574,538.928,0.0
54158.0,STARLINK-5297,PAYLOAD,2024-06-19 14:09:36,15.08821344,7.02e-05,53.2174,313.9068,91.5303,268.5769,0.00031286,4.692e-05,0.0,0 STARLINK-5297,1 54158U 22141B   24171.59001119  .00004692  00000-0  31286-3 0  9998,2 54158  53.2174 313.9068 0000702  91.5303 268.5769 15.08821344 90892,6917.937,95.439,540.288,539.317,0.0
54158.0,STARLINK-5297,PAYLOAD,2024-06-19 15:44:59,15.08837099,0.0001232,53.2174,313.6093,84.2486,275.8647,9.9002e-05,1.288e-05,0.0,0 STARLINK-5297,1 54158U 22141B   24171.65624765  .00001288  00000-0  99002-4 0  9992,2 54158  53.2174 313.6093 0001232  84.2486 275.8647 15.08837099 90909,6917.889,95.438,540.607,538.902,0.0
